[{"OBJECT_NAME":"SL-8 R/B","OBJECT_ID":"1991-006B","EPOCH":"2026-03-31T11:28:14.065248","MEAN_MOTION":13.77497803,"ECCENTRICITY":0.00216679,"INCLINATION":82.9441,"RA_OF_ASC_NODE":153.847,"ARG_OF_PERICENTER":337.5771,"MEAN_ANOMALY":34.0245,"EPHEMERIS_TYPE":0,"CLASSIFICATION_TYPE":"U","NORAD_CAT_ID":21088,"ELEMENT_SET_NO":999,"REV_AT_EPOCH":76707,"BSTAR":0.00012043349,"MEAN_MOTION_DOT":1.35e-6,"MEAN_MOTION_DDOT":0},{"OBJECT_NAME":"OKEAN-3","OBJECT_ID":"1991-039A","EPOCH":"2026-03-31T14:55:02.764992","MEAN_MOTION":15.04933428,"ECCENTRICITY":0.0012465,"INCLINATION":82.5156,"RA_OF_ASC_NODE":315.5927,"ARG_OF_PERICENTER":255.8361,"MEAN_ANOMALY":104.1481,"EPHEMERIS_TYPE":0,"CLASSIFICATION_TYPE":"U","NORAD_CAT_ID":21397,"ELEMENT_SET_NO":999,"REV_AT_EPOCH":86833,"BSTAR":0.00026447,"MEAN_MOTION_DOT":3.778e-5,"MEAN_MOTION_DDOT":0},{"OBJECT_NAME":"COSMOS 2151","OBJECT_ID":"1991-042A","EPOCH":"2026-03-31T21:28:47.506656","MEAN_MOTION":15.00203901,"ECCENTRICITY":0.0012039,"INCLINATION":82.4949,"RA_OF_ASC_NODE":62.2495,"ARG_OF_PERICENTER":353.2951,"MEAN_ANOMALY":6.811,"EPHEMERIS_TYPE":0,"CLASSIFICATION_TYPE":"U","NORAD_CAT_ID":21422,"ELEMENT_SET_NO":999,"REV_AT_EPOCH":86652,"BSTAR":0.00021587,"MEAN_MOTION_DOT":2.728e-5,"MEAN_MOTION_DDOT":0},{"OBJECT_NAME":"SL-14 R/B","OBJECT_ID":"1991-042B","EPOCH":"2026-03-31T16:53:00.765312","MEAN_MOTION":14.81852529,"ECCENTRICITY":0.001746,"INCLINATION":82.4958,"RA_OF_ASC_NODE":199.5443,"ARG_OF_PERICENTER":164.1671,"MEAN_ANOMALY":196.0092,"EPHEMERIS_TYPE":0,"CLASSIFICATION_TYPE":"U","NORAD_CAT_ID":21423,"ELEMENT_SET_NO":999,"REV_AT_EPOCH":85633,"BSTAR":7.8242e-5,"MEAN_MOTION_DOT":6.43e-6,"MEAN_MOTION_DDOT":0},{"OBJECT_NAME":"ERS-1","OBJECT_ID":"1991-050A","EPOCH":"2026-03-31T12:34:05.480256","MEAN_MOTION":14.3946622,"ECCENTRICITY":0.00327984,"INCLINATION":98.7862,"RA_OF_ASC_NODE":109.3059,"ARG_OF_PERICENTER":136.1672,"MEAN_ANOMALY":224.2126,"EPHEMERIS_TYPE":0,"CLASSIFICATION_TYPE":"U","NORAD_CAT_ID":21574,"ELEMENT_SET_NO":999,"REV_AT_EPOCH":81887,"BSTAR":0.00014962897,"MEAN_MOTION_DOT":4.23e-6,"MEAN_MOTION_DDOT":0},{"OBJECT_NAME":"ARIANE 40 R/B","OBJECT_ID":"1991-050F","EPOCH":"2026-03-31T14:12:31.363488","MEAN_MOTION":14.42909782,"ECCENTRICITY":0.000339,"INCLINATION":98.1966,"RA_OF_ASC_NODE":142.0017,"ARG_OF_PERICENTER":31.0772,"MEAN_ANOMALY":329.0618,"EPHEMERIS_TYPE":0,"CLASSIFICATION_TYPE":"U","NORAD_CAT_ID":21610,"ELEMENT_SET_NO":999,"REV_AT_EPOCH":82215,"BSTAR":0.00013349,"MEAN_MOTION_DOT":4.04e-6,"MEAN_MOTION_DDOT":0},{"OBJECT_NAME":"INTERCOSMOS 25","OBJECT_ID":"1991-086A","EPOCH":"2026-03-31T12:46:42.282912","MEAN_MOTION":12.12074891,"ECCENTRICITY":0.14864424,"INCLINATION":82.6004,"RA_OF_ASC_NODE":296.8025,"ARG_OF_PERICENTER":69.8713,"MEAN_ANOMALY":305.578,"EPHEMERIS_TYPE":0,"CLASSIFICATION_TYPE":"U","NORAD_CAT_ID":21819,"ELEMENT_SET_NO":999,"REV_AT_EPOCH":49933,"BSTAR":0.00043789882,"MEAN_MOTION_DOT":2.265e-5,"MEAN_MOTION_DDOT":0},{"OBJECT_NAME":"SL-8 R/B","OBJECT_ID":"1992-008B","EPOCH":"2026-03-31T21:50:41.801856","MEAN_MOTION":13.75969676,"ECCENTRICITY":0.0035887,"INCLINATION":82.9237,"RA_OF_ASC_NODE":251.2442,"ARG_OF_PERICENTER":73.4244,"MEAN_ANOMALY":35.7534,"EPHEMERIS_TYPE":0,"CLASSIFICATION_TYPE":"U","NORAD_CAT_ID":21876,"ELEMENT_SET_NO":999,"REV_AT_EPOCH":71247,"BSTAR":-1.3957e-6,"MEAN_MOTION_DOT":1.4e-7,"MEAN_MOTION_DDOT":0},{"OBJECT_NAME":"SL-8 R/B","OBJECT_ID":"1992-020B","EPOCH":"2026-03-31T21:36:20.793024","MEAN_MOTION":13.75550615,"ECCENTRICITY":0.0027876,"INCLINATION":82.9298,"RA_OF_ASC_NODE":137.2701,"ARG_OF_PERICENTER":233.9069,"MEAN_ANOMALY":298.8896,"EPHEMERIS_TYPE":0,"CLASSIFICATION_TYPE":"U","NORAD_CAT_ID":21938,"ELEMENT_SET_NO":999,"REV_AT_EPOCH":70418,"BSTAR":3.2781e-5,"MEAN_MOTION_DOT":4.7e-7,"MEAN_MOTION_DDOT":0},{"OBJECT_NAME":"USA 81","OBJECT_ID":"1992-023A","EPOCH":"2026-03-31T12:34:52.474944","MEAN_MOTION":14.32375169,"ECCENTRICITY":0.00016638,"INCLINATION":85.0044,"RA_OF_ASC_NODE":118.8399,"ARG_OF_PERICENTER":68.4743,"MEAN_ANOMALY":291.6627,"EPHEMERIS_TYPE":0,"CLASSIFICATION_TYPE":"U","NORAD_CAT_ID":21949,"ELEMENT_SET_NO":999,"REV_AT_EPOCH":9791,"BSTAR":7.8475155e-5,"MEAN_MOTION_DOT":2.32e-6,"MEAN_MOTION_DDOT":0},{"OBJECT_NAME":"COSMOS 2219","OBJECT_ID":"1992-076A","EPOCH":"2026-03-31T20:58:52.671072","MEAN_MOTION":14.14089795,"ECCENTRICITY":0.0017783,"INCLINATION":71.0614,"RA_OF_ASC_NODE":331.6968,"ARG_OF_PERICENTER":173.9854,"MEAN_ANOMALY":186.1485,"EPHEMERIS_TYPE":0,"CLASSIFICATION_TYPE":"U","NORAD_CAT_ID":22219,"ELEMENT_SET_NO":999,"REV_AT_EPOCH":72151,"BSTAR":-8.4317e-5,"MEAN_MOTION_DOT":-2.08e-6,"MEAN_MOTION_DDOT":0},{"OBJECT_NAME":"SL-16 R/B","OBJECT_ID":"1992-076B","EPOCH":"2026-03-31T21:16:39.453600","MEAN_MOTION":14.16863269,"ECCENTRICITY":0.0010791,"INCLINATION":70.9991,"RA_OF_ASC_NODE":141.6198,"ARG_OF_PERICENTER":55.0893,"MEAN_ANOMALY":116.755,"EPHEMERIS_TYPE":0,"CLASSIFICATION_TYPE":"U","NORAD_CAT_ID":22220,"ELEMENT_SET_NO":999,"REV_AT_EPOCH":72497,"BSTAR":-7.1729e-5,"MEAN_MOTION_DOT":-1.92e-6,"MEAN_MOTION_DDOT":0},{"OBJECT_NAME":"COSMOS 2221","OBJECT_ID":"1992-080A","EPOCH":"2026-03-31T20:09:47.612160","MEAN_MOTION":14.96296818,"ECCENTRICITY":0.0015623,"INCLINATION":82.5006,"RA_OF_ASC_NODE":257.8562,"ARG_OF_PERICENTER":116.2103,"MEAN_ANOMALY":244.0727,"EPHEMERIS_TYPE":0,"CLASSIFICATION_TYPE":"U","NORAD_CAT_ID":22236,"ELEMENT_SET_NO":999,"REV_AT_EPOCH":78410,"BSTAR":0.00024279,"MEAN_MOTION_DOT":2.775e-5,"MEAN_MOTION_DDOT":0},{"OBJECT_NAME":"SL-16 R/B","OBJECT_ID":"1992-093B","EPOCH":"2026-03-31T13:50:13.490592","MEAN_MOTION":14.15455764,"ECCENTRICITY":0.0006568,"INCLINATION":71.0227,"RA_OF_ASC_NODE":318.3221,"ARG_OF_PERICENTER":272.6425,"MEAN_ANOMALY":87.3946,"EPHEMERIS_TYPE":0,"CLASSIFICATION_TYPE":"U","NORAD_CAT_ID":22285,"ELEMENT_SET_NO":999,"REV_AT_EPOCH":71625,"BSTAR":7.2736e-5,"MEAN_MOTION_DOT":9.4e-7,"MEAN_MOTION_DDOT":0},{"OBJECT_NAME":"COSMOS 2228","OBJECT_ID":"1992-094A","EPOCH":"2026-03-31T20:12:00.701856","MEAN_MOTION":14.97309733,"ECCENTRICITY":0.0017069,"INCLINATION":82.5193,"RA_OF_ASC_NODE":216.1007,"ARG_OF_PERICENTER":224.0472,"MEAN_ANOMALY":135.9391,"EPHEMERIS_TYPE":0,"CLASSIFICATION_TYPE":"U","NORAD_CAT_ID":22286,"ELEMENT_SET_NO":999,"REV_AT_EPOCH":77937,"BSTAR":0.00029405,"MEAN_MOTION_DOT":3.445e-5,"MEAN_MOTION_DDOT":0},{"OBJECT_NAME":"SL-16 R/B","OBJECT_ID":"1993-016B","EPOCH":"2026-03-31T11:28:02.482464","MEAN_MOTION":14.15306149,"ECCENTRICITY":0.00123508,"INCLINATION":71.0075,"RA_OF_ASC_NODE":169.4232,"ARG_OF_PERICENTER":286.0384,"MEAN_ANOMALY":73.9378,"EPHEMERIS_TYPE":0,"CLASSIFICATION_TYPE":"U","NORAD_CAT_ID":22566,"ELEMENT_SET_NO":999,"REV_AT_EPOCH":70525,"BSTAR":0.00010624955,"MEAN_MOTION_DOT":1.59e-6,"MEAN_MOTION_DDOT":0},{"OBJECT_NAME":"COSMOS 2242","OBJECT_ID":"1993-024A","EPOCH":"2026-03-31T20:00:12.448224","MEAN_MOTION":14.96647649,"ECCENTRICITY":0.0015245,"INCLINATION":82.5167,"RA_OF_ASC_NODE":245.5296,"ARG_OF_PERICENTER":227.5286,"MEAN_ANOMALY":132.4649,"EPHEMERIS_TYPE":0,"CLASSIFICATION_TYPE":"U","NORAD_CAT_ID":22626,"ELEMENT_SET_NO":999,"REV_AT_EPOCH":78370,"BSTAR":0.00029338,"MEAN_MOTION_DOT":3.377e-5,"MEAN_MOTION_DDOT":0}]
